{"type": "FeatureCollection", "features": [ {"type": "Feature", "properties": {"norad_id": 41824, "name": "FENGYUN 1C DEB", "group": "fengyun-1c-debris", "lat": 46.33245286252887, "lon": -129.19145013767718, "alt_km": 828.304983893132, "timestamp": "2025-12-03T10:52:57.744548+00:00", "meta": {"OBJECT_NAME": "FENGYUN 1C DEB", "OBJECT_ID": "1999-025EYB", "EPOCH": "2025-12-03T03:30:36.467424", "MEAN_MOTION": 14.24047096, "ECCENTRICITY": 0.0056438, "INCLINATION": 98.7333, "RA_OF_ASC_NODE": 41.2364, "ARG_OF_PERICENTER": 254.7318, "MEAN_ANOMALY": 104.7617, "EPHEMERIS_TYPE": 0, "CLASSIFICATION_TYPE": "U", "NORAD_CAT_ID": 41824, "ELEMENT_SET_NO": 999, "REV_AT_EPOCH": 47223, "BSTAR": 0.0020826, "MEAN_MOTION_DOT": 4.823e-05, "MEAN_MOTION_DDOT": 0}, "tle": {"line1": "1 41824U 99025EYB 25337.14625541  .00004823  00000+0  20826-2 0  9998", "line2": "2 41824  98.7333  41.2364 0056438 254.7318 104.7617 14.24047096472231"}}, "geometry": {"type": "Point", "coordinates": [-129.19145013767718, 46.33245286252887]}}, {"type": "Feature", "properties": {"norad_id": 41825, "name": "FENGYUN 1C DEB", "group": "fengyun-1c-debris", "lat": -33.23470483363512, "lon": 52.302260099496884, "alt_km": 807.2325084823678, "timestamp": "2025-12-03T10:52:57.744558+00:00", "meta": {"OBJECT_NAME": "FENGYUN 1C DEB", "OBJECT_ID": "1999-025EYC", "EPOCH": "2025-11-26T03:46:33.202272", "MEAN_MOTION": 14.24905851, "ECCENTRICITY": 0.00545151, "INCLINATION": 98.7423, "RA_OF_ASC_NODE": 39.2502, "ARG_OF_PERICENTER": 268.2468, "MEAN_ANOMALY": 91.2466, "EPHEMERIS_TYPE": 0, "CLASSIFICATION_TYPE": "U", "NORAD_CAT_ID": 41825, "ELEMENT_SET_NO": 999, "REV_AT_EPOCH": 47112, "BSTAR": 0.0019288716, "MEAN_MOTION_DOT": 4.534e-05, "MEAN_MOTION_DDOT": 0}, "tle": {"line1": "1 41825U 99025EYC 25330.15732873  .00004534  00000+0  19289-2 0  9990", "line2": "2 41825  98.7423  39.2502 0054515 268.2468  91.2466 14.24905851471124"}}, "geometry": {"type": "Point", "coordinates": [52.302260099496884, -33.23470483363512]}}, {"type": "Feature", "properties": {"norad_id": 41826, "name": "FENGYUN 1C DEB", "group": "fengyun-1c-debris", "lat": -17.11693905752213, "lon": 46.02446256807912, "alt_km": 819.3086864491725, "timestamp": "2025-12-03T10:52:57.744568+00:00", "meta": {"OBJECT_NAME": "FENGYUN 1C DEB", "OBJECT_ID": "1999-025EYD", "EPOCH": "2025-11-26T15:20:38.448096", "MEAN_MOTION": 14.23588409, "ECCENTRICITY": 0.00545194, "INCLINATION": 98.735, "RA_OF_ASC_NODE": 36.5456, "ARG_OF_PERICENTER": 270.1742, "MEAN_ANOMALY": 89.3189, "EPHEMERIS_TYPE": 0, "CLASSIFICATION_TYPE": "U", "NORAD_CAT_ID": 41826, "ELEMENT_SET_NO": 999, "REV_AT_EPOCH": 47131, "BSTAR": 0.0016457098, "MEAN_MOTION_DOT": 3.763e-05, "MEAN_MOTION_DDOT": 0}, "tle": {"line1": "1 41826U 99025EYD 25330.63933389  .00003763  00000+0  16457-2 0  9996", "line2": "2 41826  98.7350  36.5456 0054519 270.1742  89.3189 14.23588409471319"}}, "geometry": {"type": "Point", "coordinates": [46.02446256807912, -17.11693905752213]}}, {"type": "Feature", "properties": {"norad_id": 41827, "name": "FENGYUN 1C DEB", "group": "fengyun-1c-debris", "lat": -6.2937530425687545, "lon": -134.28055274188077, "alt_km": 787.0379874665223, "timestamp": "2025-12-03T10:52:57.744579+00:00", "meta": {"OBJECT_NAME": "FENGYUN 1C DEB", "OBJECT_ID": "1999-025EYE", "EPOCH": "2025-12-03T03:15:58.951008", "MEAN_MOTION": 14.25147211, "ECCENTRICITY": 0.0057613, "INCLINATION": 98.7443, "RA_OF_ASC_NODE": 46.3759, "ARG_OF_PERICENTER": 240.8985, "MEAN_ANOMALY": 118.6418, "EPHEMERIS_TYPE": 0, "CLASSIFICATION_TYPE": "U", "NORAD_CAT_ID": 41827, "ELEMENT_SET_NO": 999, "REV_AT_EPOCH": 47194, "BSTAR": 0.0022456, "MEAN_MOTION_DOT": 5.321e-05, "MEAN_MOTION_DDOT": 0}, "tle": {"line1": "1 41827U 99025EYE 25337.13609897  .00005321  00000+0  22456-2 0  9991", "line2": "2 41827  98.7443  46.3759 0057613 240.8985 118.6418 14.25147211471943"}}, "geometry": {"type": "Point", "coordinates": [-134.28055274188077, -6.2937530425687545]}}, {"type": "Feature", "properties": {"norad_id": 41828, "name": "FENGYUN 1C DEB", "group": "fengyun-1c-debris", "lat": -70.80008371807901, "lon": 131.74559644712102, "alt_km": 726.6546546746576, "timestamp": "2025-12-03T10:52:57.744589+00:00", "meta": {"OBJECT_NAME": "FENGYUN 1C DEB", "OBJECT_ID": "1999-025EYF", "EPOCH": "2025-12-02T20:19:31.468800", "MEAN_MOTION": 14.51050287, "ECCENTRICITY": 0.0040325, "INCLINATION": 98.9216, "RA_OF_ASC_NODE": 104.2891, "ARG_OF_PERICENTER": 204.1346, "MEAN_ANOMALY": 155.7959, "EPHEMERIS_TYPE": 0, "CLASSIFICATION_TYPE": "U", "NORAD_CAT_ID": 41828, "ELEMENT_SET_NO": 999, "REV_AT_EPOCH": 47320, "BSTAR": 0.0068161, "MEAN_MOTION_DOT": 0.00027328, "MEAN_MOTION_DDOT": 0}, "tle": {"line1": "1 41828U 99025EYF 25336.84689200  .00027328  00000+0  68161-2 0  9999", "line2": "2 41828  98.9216 104.2891 0040325 204.1346 155.7959 14.51050287473209"}}, "geometry": {"type": "Point", "coordinates": [131.74559644712102, -70.80008371807901]}}, {"type": "Feature", "properties": {"norad_id": 41829, "name": "FENGYUN 1C DEB", "group": "fengyun-1c-debris", "lat": -20.744459445903033, "lon": 50.042714226311816, "alt_km": 815.8230771587705, "timestamp": "2025-12-03T10:52:57.744600+00:00", "meta": {"OBJECT_NAME": "FENGYUN 1C DEB", "OBJECT_ID": "1999-025EYG", "EPOCH": "2025-12-03T02:33:19.814112", "MEAN_MOTION": 14.25007997, "ECCENTRICITY": 0.0055919, "INCLINATION": 98.7463, "RA_OF_ASC_NODE": 46.3543, "ARG_OF_PERICENTER": 246.6872, "MEAN_ANOMALY": 112.8416, "EPHEMERIS_TYPE": 0, "CLASSIFICATION_TYPE": "U", "NORAD_CAT_ID": 41829, "ELEMENT_SET_NO": 999, "REV_AT_EPOCH": 47170, "BSTAR": 0.0021279, "MEAN_MOTION_DOT": 5.021e-05, "MEAN_MOTION_DDOT": 0}, "tle": {"line1": "1 41829U 99025EYG 25337.10647933  .00005021  00000+0  21279-2 0  9992", "line2": "2 41829  98.7463  46.3543 0055919 246.6872 112.8416 14.25007997471708"}}, "geometry": {"type": "Point", "coordinates": [50.042714226311816, -20.744459445903033]}}, {"type": "Feature", "properties": {"norad_id": 41830, "name": "FENGYUN 1C DEB", "group": "fengyun-1c-debris", "lat": 65.10758075692864, "lon": -111.16629793824075, "alt_km": 822.3693396693379, "timestamp": "2025-12-03T10:52:57.744610+00:00", "meta": {"OBJECT_NAME": "FENGYUN 1C DEB", "OBJECT_ID": "1999-025EYH", "EPOCH": "2025-12-03T00:14:47.937984", "MEAN_MOTION": 14.2631278, "ECCENTRICITY": 0.0053992, "INCLINATION": 98.7543, "RA_OF_ASC_NODE": 48.9961, "ARG_OF_PERICENTER": 244.4093, "MEAN_ANOMALY": 115.1501, "EPHEMERIS_TYPE": 0, "CLASSIFICATION_TYPE": "U", "NORAD_CAT_ID": 41830, "ELEMENT_SET_NO": 999, "REV_AT_EPOCH": 47135, "BSTAR": 0.0023799, "MEAN_MOTION_DOT": 5.761e-05, "MEAN_MOTION_DDOT": 0}, "tle": {"line1": "1 41830U 99025EYH 25337.01027706  .00005761  00000+0  23799-2 0  9994", "line2": "2 41830  98.7543  48.9961 0053992 244.4093 115.1501 14.26312780471353"}}, "geometry": {"type": "Point", "coordinates": [-111.16629793824075, 65.10758075692864]}}, {"type": "Feature", "properties": {"norad_id": 41831, "name": "FENGYUN 1C DEB", "group": "fengyun-1c-debris", "lat": 3.01453989066373, "lon": 43.89706658194181, "alt_km": 829.8343771649825, "timestamp": "2025-12-03T10:52:57.744620+00:00", "meta": {"OBJECT_NAME": "FENGYUN 1C DEB", "OBJECT_ID": "1999-025EYJ", "EPOCH": "2025-12-02T16:19:27.602112", "MEAN_MOTION": 14.2444352, "ECCENTRICITY": 0.0055634, "INCLINATION": 98.7358, "RA_OF_ASC_NODE": 43.5922, "ARG_OF_PERICENTER": 250.0013, "MEAN_ANOMALY": 109.5169, "EPHEMERIS_TYPE": 0, "CLASSIFICATION_TYPE": "U", "NORAD_CAT_ID": 41831, "ELEMENT_SET_NO": 999, "REV_AT_EPOCH": 47116, "BSTAR": 0.002135, "MEAN_MOTION_DOT": 4.982e-05, "MEAN_MOTION_DDOT": 0}, "tle": {"line1": "1 41831U 99025EYJ 25336.68018058  .00004982  00000+0  21350-2 0  9992", "line2": "2 41831  98.7358  43.5922 0055634 250.0013 109.5169 14.24443520471167"}}, "geometry": {"type": "Point", "coordinates": [43.89706658194181, 3.01453989066373]}}, {"type": "Feature", "properties": {"norad_id": 41832, "name": "FENGYUN 1C DEB", "group": "fengyun-1c-debris", "lat": 66.70840326070292, "lon": 20.625774882333378, "alt_km": 844.3392448486793, "timestamp": "2025-12-03T10:52:57.744630+00:00", "meta": {"OBJECT_NAME": "FENGYUN 1C DEB", "OBJECT_ID": "1999-025EYK", "EPOCH": "2025-12-03T03:48:56.196000", "MEAN_MOTION": 14.24117814, "ECCENTRICITY": 0.0054952, "INCLINATION": 98.7309, "RA_OF_ASC_NODE": 41.2473, "ARG_OF_PERICENTER": 253.1562, "MEAN_ANOMALY": 106.3586, "EPHEMERIS_TYPE": 0, "CLASSIFICATION_TYPE": "U", "NORAD_CAT_ID": 41832, "ELEMENT_SET_NO": 999, "REV_AT_EPOCH": 47214, "BSTAR": 0.0021237, "MEAN_MOTION_DOT": 4.922e-05, "MEAN_MOTION_DDOT": 0}, "tle": {"line1": "1 41832U 99025EYK 25337.15898375  .00004922  00000+0  21237-2 0  9992", "line2": "2 41832  98.7309  41.2473 0054952 253.1562 106.3586 14.24117814472146"}}, "geometry": {"type": "Point", "coordinates": [20.625774882333378, 66.70840326070292]}}, {"type": "Feature", "properties": {"norad_id": 41833, "name": "FENGYUN 1C DEB", "group": "fengyun-1c-debris", "lat": -42.91080646704594, "lon": -141.19357623582945, "alt_km": 778.291652825953, "timestamp": "2025-12-03T10:52:57.744640+00:00", "meta": {"OBJECT_NAME": "FENGYUN 1C DEB", "OBJECT_ID": "1999-025EYL", "EPOCH": "2025-12-01T10:40:16.856256", "MEAN_MOTION": 14.25661279, "ECCENTRICITY": 0.00535293, "INCLINATION": 98.7504, "RA_OF_ASC_NODE": 45.0337, "ARG_OF_PERICENTER": 255.6089, "MEAN_ANOMALY": 103.9145, "EPHEMERIS_TYPE": 0, "CLASSIFICATION_TYPE": "U", "NORAD_CAT_ID": 41833, "ELEMENT_SET_NO": 999, "REV_AT_EPOCH": 47203, "BSTAR": 0.0020500146, "MEAN_MOTION_DOT": 4.891e-05, "MEAN_MOTION_DDOT": 0}, "tle": {"line1": "1 41833U 99025EYL 25335.44463954  .00004891  00000+0  20500-2 0  9991", "line2": "2 41833  98.7504  45.0337 0053529 255.6089 103.9145 14.25661279472037"}}, "geometry": {"type": "Point", "coordinates": [-141.19357623582945, -42.91080646704594]}}]}